{"type": "FeatureCollection", "features": [{"type": "Feature", "properties": {"norad_id": 2807, "name": "OPS 7218 (TRANSIT 16)", "group": "nnss", "lat": 54.08497683601069, "lon": 173.84466629960232, "alt_km": 1048.8465028549654, "timestamp": "2025-12-04T07:39:36.404880+00:00", "meta": {"OBJECT_NAME": "OPS 7218 (TRANSIT 16)", "OBJECT_ID": "1967-048A", "EPOCH": "2025-12-03T19:27:04.855104", "MEAN_MOTION": 13.50719553, "ECCENTRICITY": 0.00214887, "INCLINATION": 89.6735, "RA_OF_ASC_NODE": 354.3125, "ARG_OF_PERICENTER": 138.1192, "MEAN_ANOMALY": 35.6579, "EPHEMERIS_TYPE": 0, "CLASSIFICATION_TYPE": "U", "NORAD_CAT_ID": 2807, "ELEMENT_SET_NO": 999, "REV_AT_EPOCH": 88155, "BSTAR": 0.00022787551, "MEAN_MOTION_DOT": 1.57e-06, "MEAN_MOTION_DDOT": 0}, "tle": {"line1": "1 02807U 67048A   25337.81047286  .00000157  00000+0  22788-3 0  9990", "line2": "2 02807  89.6735 354.3125 0021488 138.1192  35.6579 13.50719553881559"}}, "geometry": {"type": "Point", "coordinates": [173.84466629960232, 54.08497683601069]}}, {"type": "Feature", "properties": {"norad_id": 2965, "name": "OPS 4947 (TRANSIT 17)", "group": "nnss", "lat": 72.497981271296, "lon": -157.30108381180293, "alt_km": 1082.8835080672497, "timestamp": "2025-12-04T07:39:36.404901+00:00", "meta": {"OBJECT_NAME": "OPS 4947 (TRANSIT 17)", "OBJECT_ID": "1967-092A", "EPOCH": "2025-12-03T15:45:35.885376", "MEAN_MOTION": 13.53450115, "ECCENTRICITY": 0.00457844, "INCLINATION": 89.2506, "RA_OF_ASC_NODE": 25.128, "ARG_OF_PERICENTER": 261.8094, "MEAN_ANOMALY": 219.8061, "EPHEMERIS_TYPE": 0, "CLASSIFICATION_TYPE": "U", "NORAD_CAT_ID": 2965, "ELEMENT_SET_NO": 999, "REV_AT_EPOCH": 86974, "BSTAR": 0.00024972431, "MEAN_MOTION_DOT": 1.8e-06, "MEAN_MOTION_DDOT": 0}, "tle": {"line1": "1 02965U 67092A   25337.65666534  .00000180  00000+0  24972-3 0  9992", "line2": "2 02965  89.2506  25.1280 0045784 261.8094 219.8061 13.53450115869749"}}, "geometry": {"type": "Point", "coordinates": [-157.30108381180293, 72.497981271296]}}, {"type": "Feature", "properties": {"norad_id": 3133, "name": "OPS 7034 (TRANSIT 18)", "group": "nnss", "lat": -45.31331675473564, "lon": -86.35733719428121, "alt_km": 1101.1087658204387, "timestamp": "2025-12-04T07:39:36.404912+00:00", "meta": {"OBJECT_NAME": "OPS 7034 (TRANSIT 18)", "OBJECT_ID": "1968-012A", "EPOCH": "2025-12-03T21:33:02.442816", "MEAN_MOTION": 13.51562734, "ECCENTRICITY": 0.00730348, "INCLINATION": 90.027, "RA_OF_ASC_NODE": 273.6142, "ARG_OF_PERICENTER": 194.8777, "MEAN_ANOMALY": 230.8678, "EPHEMERIS_TYPE": 0, "CLASSIFICATION_TYPE": "U", "NORAD_CAT_ID": 3133, "ELEMENT_SET_NO": 999, "REV_AT_EPOCH": 56799, "BSTAR": 0.00021575464, "MEAN_MOTION_DOT": 1.52e-06, "MEAN_MOTION_DDOT": 0}, "tle": {"line1": "1 03133U 68012A   25337.89794494  .00000152  00000+0  21575-3 0  9991", "line2": "2 03133  90.0270 273.6142 0073034 194.8777 230.8678 13.51562734567992"}}, "geometry": {"type": "Point", "coordinates": [-86.35733719428121, -45.31331675473564]}}, {"type": "Feature", "properties": {"norad_id": 4507, "name": "NNSS 19 (TRANSIT 19)", "group": "nnss", "lat": -67.76763969430331, "lon": -125.45846389522211, "alt_km": 959.5168354169473, "timestamp": "2025-12-04T07:39:36.404923+00:00", "meta": {"OBJECT_NAME": "NNSS 19 (TRANSIT 19)", "OBJECT_ID": "1970-067A", "EPOCH": "2025-12-03T17:46:03.771552", "MEAN_MOTION": 13.5131129, "ECCENTRICITY": 0.01711646, "INCLINATION": 90.0056, "RA_OF_ASC_NODE": 234.5275, "ARG_OF_PERICENTER": 319.6425, "MEAN_ANOMALY": 39.2127, "EPHEMERIS_TYPE": 0, "CLASSIFICATION_TYPE": "U", "NORAD_CAT_ID": 4507, "ELEMENT_SET_NO": 999, "REV_AT_EPOCH": 72100, "BSTAR": 0.00028548296, "MEAN_MOTION_DOT": 2.11e-06, "MEAN_MOTION_DDOT": 0}, "tle": {"line1": "1 04507U 70067A   25337.74032143  .00000211  00000+0  28548-3 0  9993", "line2": "2 04507  90.0056 234.5275 0171164 319.6425  39.2127 13.51311290721006"}}, "geometry": {"type": "Point", "coordinates": [-125.45846389522211, -67.76763969430331]}}, {"type": "Feature", "properties": {"norad_id": 6909, "name": "NNSS 20 (TRANSIT 20)", "group": "nnss", "lat": 62.74459592269543, "lon": 74.90015524491218, "alt_km": 876.3515357500228, "timestamp": "2025-12-04T07:39:36.404933+00:00", "meta": {"OBJECT_NAME": "NNSS 20 (TRANSIT 20)", "OBJECT_ID": "1973-081A", "EPOCH": "2025-12-03T18:50:37.207968", "MEAN_MOTION": 13.71427987, "ECCENTRICITY": 0.01564724, "INCLINATION": 89.8557, "RA_OF_ASC_NODE": 255.1885, "ARG_OF_PERICENTER": 104.8334, "MEAN_ANOMALY": 257.022, "EPHEMERIS_TYPE": 0, "CLASSIFICATION_TYPE": "U", "NORAD_CAT_ID": 6909, "ELEMENT_SET_NO": 999, "REV_AT_EPOCH": 80238, "BSTAR": 0.00028938661, "MEAN_MOTION_DOT": 2.96e-06, "MEAN_MOTION_DDOT": 0}, "tle": {"line1": "1 06909U 73081A   25337.78515287  .00000296  00000+0  28939-3 0  9996", "line2": "2 06909  89.8557 255.1885 0156472 104.8334 257.0220 13.71427987802388"}}, "geometry": {"type": "Point", "coordinates": [74.90015524491218, 62.74459592269543]}}, {"type": "Feature", "properties": {"norad_id": 10457, "name": "TRANSAT", "group": "nnss", "lat": 9.864164159547355, "lon": 78.95622857789995, "alt_km": 1094.42452589376, "timestamp": "2025-12-04T07:39:36.404943+00:00", "meta": {"OBJECT_NAME": "TRANSAT", "OBJECT_ID": "1977-106A", "EPOCH": "2025-12-03T19:44:22.543296", "MEAN_MOTION": 13.48941362, "ECCENTRICITY": 0.00245874, "INCLINATION": 89.6482, "RA_OF_ASC_NODE": 78.9126, "ARG_OF_PERICENTER": 215.8171, "MEAN_ANOMALY": 263.4628, "EPHEMERIS_TYPE": 0, "CLASSIFICATION_TYPE": "U", "NORAD_CAT_ID": 10457, "ELEMENT_SET_NO": 999, "REV_AT_EPOCH": 36623, "BSTAR": 0.00015959191, "MEAN_MOTION_DOT": 1.1e-06, "MEAN_MOTION_DDOT": 0}, "tle": {"line1": "1 10457U 77106A   25337.82248314  .00000110  00000+0  15959-3 0  9993", "line2": "2 10457  89.6482  78.9126 0024587 215.8171 263.4628 13.48941362366232"}}, "geometry": {"type": "Point", "coordinates": [78.95622857789995, 9.864164159547355]}}, {"type": "Feature", "properties": {"norad_id": 12458, "name": "NOVA 1", "group": "nnss", "lat": -31.838890121572756, "lon": 91.4123769062232, "alt_km": 1189.074283536449, "timestamp": "2025-12-04T07:39:36.404953+00:00", "meta": {"OBJECT_NAME": "NOVA 1", "OBJECT_ID": "1981-044A", "EPOCH": "2025-12-03T21:32:55.161888", "MEAN_MOTION": 13.23276955, "ECCENTRICITY": 0.0015609, "INCLINATION": 89.8522, "RA_OF_ASC_NODE": 91.5102, "ARG_OF_PERICENTER": 125.7622, "MEAN_ANOMALY": 356.6957, "EPHEMERIS_TYPE": 0, "CLASSIFICATION_TYPE": "U", "NORAD_CAT_ID": 12458, "ELEMENT_SET_NO": 999, "REV_AT_EPOCH": 15069, "BSTAR": 0.00016146934, "MEAN_MOTION_DOT": 7.7e-07, "MEAN_MOTION_DDOT": 0}, "tle": {"line1": "1 12458U 81044A   25337.89786067  .00000077  00000+0  16147-3 0  9993", "line2": "2 12458  89.8522  91.5102 0015609 125.7622 356.6957 13.23276955150695"}}, "geometry": {"type": "Point", "coordinates": [91.4123769062232, -31.838890121572756]}}, {"type": "Feature", "properties": {"norad_id": 15362, "name": "NOVA 3", "group": "nnss", "lat": -28.015987852797302, "lon": -99.62979408844525, "alt_km": 1198.8170649965796, "timestamp": "2025-12-04T07:39:36.404962+00:00", "meta": {"OBJECT_NAME": "NOVA 3", "OBJECT_ID": "1984-110A", "EPOCH": "2025-12-03T20:18:40.516128", "MEAN_MOTION": 13.23042833, "ECCENTRICITY": 0.00312185, "INCLINATION": 90.1226, "RA_OF_ASC_NODE": 80.4299, "ARG_OF_PERICENTER": 356.9247, "MEAN_ANOMALY": 120.2283, "EPHEMERIS_TYPE": 0, "CLASSIFICATION_TYPE": "U", "NORAD_CAT_ID": 15362, "ELEMENT_SET_NO": 999, "REV_AT_EPOCH": 98581, "BSTAR": 9.3063096e-05, "MEAN_MOTION_DOT": 4.7e-07, "MEAN_MOTION_DDOT": 0}, "tle": {"line1": "1 15362U 84110A   25337.84630227  .00000047  00000+0  93063-4 0  9998", "line2": "2 15362  90.1226  80.4299 0031218 356.9247 120.2283 13.23042833985810"}}, "geometry": {"type": "Point", "coordinates": [-99.62979408844525, -28.015987852797302]}}, {"type": "Feature", "properties": {"norad_id": 15935, "name": "OSCAR 30", "group": "nnss", "lat": -75.40018372248366, "lon": -80.92289191928191, "alt_km": 1238.4832298050624, "timestamp": "2025-12-04T07:39:36.404972+00:00", "meta": {"OBJECT_NAME": "OSCAR 30", "OBJECT_ID": "1985-066A", "EPOCH": "2025-12-03T22:00:57.818304", "MEAN_MOTION": 13.36076089, "ECCENTRICITY": 0.01693469, "INCLINATION": 90.1646, "RA_OF_ASC_NODE": 99.7029, "ARG_OF_PERICENTER": 108.5282, "MEAN_ANOMALY": 14.1575, "EPHEMERIS_TYPE": 0, "CLASSIFICATION_TYPE": "U", "NORAD_CAT_ID": 15935, "ELEMENT_SET_NO": 999, "REV_AT_EPOCH": 96335, "BSTAR": 0.00023899718, "MEAN_MOTION_DOT": 1.43e-06, "MEAN_MOTION_DDOT": 0}, "tle": {"line1": "1 15935U 85066A   25337.91733586  .00000143  00000+0  23900-3 0  9994", "line2": "2 15935  90.1646  99.7029 0169346 108.5282  14.1575 13.36076089963354"}}, "geometry": {"type": "Point", "coordinates": [-80.92289191928191, -75.40018372248366]}}, {"type": "Feature", "properties": {"norad_id": 15936, "name": "OSCAR 24", "group": "nnss", "lat": -27.363064643617083, "lon": 92.24892808678379, "alt_km": 1228.8394088581608, "timestamp": "2025-12-04T07:39:36.404981+00:00", "meta": {"OBJECT_NAME": "OSCAR 24", "OBJECT_ID": "1985-066B", "EPOCH": "2025-12-03T19:48:06.613056", "MEAN_MOTION": 13.35933575, "ECCENTRICITY": 0.01703838, "INCLINATION": 90.1787, "RA_OF_ASC_NODE": 92.1477, "ARG_OF_PERICENTER": 115.2258, "MEAN_ANOMALY": 3.8692, "EPHEMERIS_TYPE": 0, "CLASSIFICATION_TYPE": "U", "NORAD_CAT_ID": 15936, "ELEMENT_SET_NO": 999, "REV_AT_EPOCH": 96524, "BSTAR": 0.00014632153, "MEAN_MOTION_DOT": 9.2e-07, "MEAN_MOTION_DDOT": 0}, "tle": {"line1": "1 15936U 85066B   25337.82507654  .00000092  00000+0  14632-3 0  9995", "line2": "2 15936  90.1787  92.1477 0170383 115.2258   3.8692 13.35933575965242"}}, "geometry": {"type": "Point", "coordinates": [92.24892808678379, -27.363064643617083]}}]}